NUSAT-19 (ROSALIND)
1 48905U 21059AC  23135.29290001  .00018679  00000+0  69389-3 0  9998
2 48905  97.5472 270.4731 0008326   1.0580  58.0246 15.27572543104550
ICEYE-X12
1 48914U 21059AM  23135.15439898  .00014450  00000+0  74223-3 0  9998
2 48914  97.5901 265.9076 0000938  49.8104  52.0974 15.16601278103985
ICEYE-X13
1 48916U 21059AP  23135.31011184  .00014447  00000+0  72600-3 0  9995
2 48916  97.5915 266.5140 0001844  53.5354   1.4330 15.17369597104034
ICEYE-X15
1 48917U 21059AQ  23135.19495091  .00011583  00000+0  47744-3 0  9994
2 48917  97.5902 270.8445 0010357  25.2891 334.8851 15.24198666104315
ICEYE-X11
1 48918U 21059AR  23134.35780379  .00013755  00000+0  62732-3 0  9995
2 48918  97.5896 269.5991 0009223   5.3196 354.8135 15.20717497104161
NUSAT-22 (SOFYA)
1 48919U 21059AS  23135.14701312  .00040276  00000+0  74814-3 0  9996
2 48919  97.3903 273.4690 0009484 281.2119  78.8065 15.48767639105527
NUSAT-21 (ELISA)
1 48920U 21059AT  23135.29461067  .00054740  00000+0  78814-3 0  9999
2 48920  97.3833 274.7769 0008842 281.4049  78.6212 15.55828494105676
NUSAT-20 (GRACE)
1 48921U 21059AU  23135.30264757  .00046389  00000+0  74626-3 0  9996
2 48921  97.3983 274.9178 0010377 301.4406  58.5831 15.52794063105614
HAWK-3B
1 48931U 21059BE  23134.86396641  .00008055  00000+0  37566-3 0  9995
2 48931  97.5793 268.6553 0015129  42.4981 317.7422 15.20033942104222
HAWK-3C
1 48948U 21059BX  23134.92955360  .00008044  00000+0  37505-3 0  9990
2 48948  97.6054 270.8998 0016169  44.7929 315.4608 15.20028911104233
HAWK-3A
1 48957U 21059CG  23134.86363224  .00008075  00000+0  37648-3 0  9997
2 48957  97.5924 269.7490 0016073  39.8020 320.4390 15.20029639104224
BRO-4
1 49066U 21073A   23135.16096563  .00013942  00000+0  71568-3 0  9996
2 49066  97.4874 208.2126 0024293 217.0165 201.4013 15.16370805 96023
GLOBAL-14
1 49469U 21106A   23135.07851371  .00027152  00000+0  55761-3 0  9991
2 49469  42.0128  54.0857 0010041 222.2758 137.7311 15.45389073 84037
GLOBAL-15
1 49470U 21106B   23135.01826783  .00017776  00000+0  49665-3 0  9993
2 49470  42.0085  84.3829 0009854 191.1428 168.9194 15.36296689 83689
GLOBAL-12
1 49772U 21115BA  23134.92321471  .00025539  00000+0  53531-3 0  9994
2 49772  53.2099 329.9635 0004234 308.8440  51.2190 15.45267369 81809
GLOBAL-13
1 49773U 21115BB  23134.83058592  .00027068  00000+0  57616-3 0  9993
2 49773  53.2106 331.5735 0003086 270.7024  89.3630 15.44784237 81772
GLOBAL-17
1 49949U 21120A   23134.49494577  .00020033  00000+0  40456-3 0  9992
2 49949  42.0067 177.3019 0003572  14.5923 345.5021 15.46063318 80707
GLOBAL-16
1 49950U 21120B   23134.53072444  .00010757  00000+0  22443-3 0  9992
2 49950  42.0063 176.6909 0006169  16.0999 344.0038 15.45501144 80705
FOSSASAT-2E2
1 50984U 22002A   23135.13778920  .00252640  00000+0  28558-2 0  9991
2 50984  97.4520 209.6692 0008321 276.1215  83.9094 15.61593754 74175
FOSSASAT-2E1
1 50985U 22002B   23135.16871175  .00256332  00000+0  27308-2 0  9995
2 50985  97.4457 209.9168 0008325 269.6121  90.4183 15.63116708 74188
FOSSASAT-2E3
1 50990U 22002G   23134.76093298  .00083732  00000+0  16829-2 0  9996
2 50990  97.4188 207.1924 0005594 309.4236  50.6518 15.46323437 74012
FOSSASAT-2E6
1 50991U 22002H   23135.13410920  .00233951  00000+0  28278-2 0  9995
2 50991  97.4384 209.0883 0006502 275.3918  84.6597 15.59910757 74132
FOSSASAT-2E5
1 51001U 22002T   23135.16985634  .00603543  00000+0  35220-2 0  9993
2 51001  97.4292 210.3636 0010445 263.2460  96.7617 15.76711190 74229
ICEYE-X16
1 51008U 22002AA  23135.22716521  .00015620  00000+0  67188-3 0  9996
2 51008  97.4407 202.4627 0008188   1.6997 358.4265 15.22695052 73726
HYPSO-1
1 51053U 22002BX  23135.27071657  .00008677  00000+0  43810-3 0  9995
2 51053  97.4348 200.6728 0008327  16.7853  23.5475 15.17304988 73637
ETV-A1
1 51060U 22002CE  23135.16970552  .00006495  00000+0  34506-3 0  9991
2 51060  97.4420 200.5806 0009831  24.0790  60.7134 15.15596094 73583
BRO-5
1 51061U 22002CF  23135.17789784  .00005847  00000+0  30180-3 0  9992
2 51061  97.4460 201.1836 0009823  27.4400  48.5538 15.16662349 73618
ICEYE-X14
1 51070U 22002CQ  23135.21758777  .00017076  00000+0  75051-3 0  9998
2 51070  97.4416 202.5246 0009551   2.3726  85.3230 15.21928727 73721
CAPELLA-8-WHITNEY
1 51071U 22002CR  23134.76700096  .00098021  00000+0  24913-2 0  9998
2 51071  97.4377 203.2486 0002663 328.8097  31.2990 15.39245751 73738
CAPELLA-7-WHITNEY
1 51072U 22002CS  23134.78092596  .00115108  00000+0  28897-2 0  9991
2 51072  97.4373 203.0715 0002161 330.4638  29.6485 15.39552622 73728
DODONA
1 51084U 22002DE  23134.76665406  .00020671  00000+0  79740-3 0  9992
2 51084  97.4413 203.2886 0004462 358.8163   1.3064 15.26320606 73732
STORK-1
1 51087U 22002DH  23135.21887340  .00030627  00000+0  12072-2 0  9995
2 51087  97.4473 203.0802 0009770   6.8923  70.1416 15.25484780 73736
STORK-2
1 51088U 22002DJ  23135.18262190  .00028687  00000+0  11010-2 0  9996
2 51088  97.4357 203.1358 0006286 345.5882  69.8232 15.26414934 73782
SW1FT
1 51089U 22002DK  23135.15658910  .00030574  00000+0  11848-2 0  9990
2 51089  97.4380 202.8912 0006924   6.1010  45.5968 15.26074122 73758
STORK-3
1 51098U 22003E   23135.26684440  .00111038  00000+0  16029-2 0  9991
2 51098  44.9631  34.8934 0013168 187.4123 307.1030 15.54836028 74599
HAWK-4B
1 52165U 22033J   23134.78704565  .00009664  00000+0  36288-3 0  9998
2 52165  97.3566 215.7485 0007902 293.3949  66.6459 15.27375692 62142
HAWK-4A
1 52167U 22033L   23134.78683562  .00009700  00000+0  36419-3 0  9990
2 52167  97.3519 215.5120 0007286 293.6728  66.3746 15.27380871 62140
NUSAT-23 (ANNIE MAUNDER)
1 52168U 22033M   23135.22345355  .00017428  00000+0  61206-3 0  9994
2 52168  97.3531 216.2833 0006760 287.4146 128.7263 15.29440028 62224
HAWK-4C
1 52170U 22033P   23134.78671483  .00009563  00000+0  35904-3 0  9998
2 52170  97.3565 215.7357 0009171 278.1078  81.9121 15.27372903 62147
NUSAT-25 (MARIA TELKES)
1 52171U 22033Q   23135.06880096  .00016570  00000+0  61423-3 0  9994
2 52171  97.3145 215.5326 0007482 267.4831 176.7347 15.27668788 62307
NUSAT-27 (SALLY RIDE)
1 52172U 22033R   23135.08184266  .00022455  00000+0  68538-3 0  9996
2 52172  97.3075 216.2758 0008105 260.0576 184.7263 15.33894735 62367
SHAKUNTALA
1 52173U 22033S   23135.22405778  .00042974  00000+0  10714-2 0  9997
2 52173  97.3602 219.0183 0008439 262.7706 152.2821 15.40055316 62385
BRO-7
1 52174U 22033T   23135.20071010  .00010206  00000+0  37498-3 0  9996
2 52174  97.3558 216.5390 0010343 273.6528 138.4752 15.28059835 62237
NUSAT-24 (KALPANA CHAW*)
1 52178U 22033X   23135.21275495  .00016572  00000+0  61677-3 0  9992
2 52178  97.3148 215.7982 0007233 283.6464 160.4910 15.27538919 62323
NUSAT-26 (M SOMERVILLE)
1 52184U 22033AD  23134.80761637  .00012423  00000+0  47105-3 0  9992
2 52184  97.3692 215.6410 0006182 274.7011  85.3522 15.26995048 62132
GLOBAL-18
1 52196U 22034B   23134.50269736  .00030479  00000+0  63940-3 0  9992
2 52196  52.9995 201.5530 0008243 351.2895   8.7961 15.45116248 62927
GLOBAL-20
1 52197U 22034C   23134.60230646  .00025340  00000+0  52566-3 0  9995
2 52197  52.9967 200.7405 0010475 352.2109   7.8731 15.45527105 62943
BRO-6
1 52422U 22047AE  23135.20077395  .00006615  00000+0  34625-3 0  9997
2 52422  97.4258 217.4776 0008903 115.1560 328.8306 15.16120804 58534
GHGSAT-C3
1 52737U 22057F   23135.21866113  .00005115  00000+0  27956-3 0  9995
2 52737  97.5401 250.6005 0009912 108.3286 339.1351 15.14701138 53597
CONNECTA T1.1
1 52739U 22057H   23135.22661220  .00005056  00000+0  26591-3 0  9998
2 52739  97.5439 251.0481 0010130 109.7471 250.4855 15.16068320 53616
CENTAURI 5 (TYVAK-0212)
1 52742U 22057L   23134.89551463  .00025805  00000+0  10416-2 0  9993
2 52742  97.5343 251.9330 0007525 106.7246 253.4817 15.24743753 53662
GHGSAT-C5
1 52744U 22057N   23135.19013860  .00005473  00000+0  29874-3 0  9991
2 52744  97.5467 250.9330 0011367 105.3179 304.2875 15.14698369 53591
GHGSAT-C4
1 52746U 22057Q   23135.17544255  .00005658  00000+0  30838-3 0  9995
2 52746  97.5343 250.3872 0010415  96.7011 347.9275 15.14745091 53595
NUSAT-28 (ALICE LEE)
1 52747U 22057R   23135.26723355  .00014457  00000+0  55036-3 0  9990
2 52747  97.4098 251.4747 0010110  64.6357 295.5927 15.26798500 53839
NUSAT-30 (MARGHERITA)
1 52748U 22057S   23135.25098116  .00014369  00000+0  54800-3 0  9990
2 52748  97.3761 250.0171 0008340  47.1146 313.0792 15.26753517 54012
ICEYE-X18
1 52749U 22057T   23135.23156176  .00022010  00000+0  10029-2 0  9996
2 52749  97.5350 251.5549 0009620  75.6901 344.6151 15.20637784 53661
FOSSASAT-2E11
1 52750U 22057U   23134.83795146  .00090855  00000+0  21243-2 0  9991
2 52750  97.5398 254.8979 0004688 118.7428 241.4290 15.41807188 53837
NUSAT-31 (RUBY PAYNE-S)
1 52752U 22057W   23135.25349918  .00009441  00000+0  46595-3 0  9991
2 52752  97.5410 251.4978 0010295  95.4194 264.8215 15.18068764 53657
HAWK-5C
1 52754U 22057Y   23134.85721082  .00007119  00000+0  37069-3 0  9990
2 52754  97.5499 251.2178 0010599  98.6831 261.5603 15.16275882 53571
ICEYE-X24
1 52755U 22057Z   23135.27345793  .00021718  00000+0  92382-3 0  9999
2 52755  97.5368 252.3476 0008846  91.6371 323.3724 15.22999663 53718
HAWK-5B
1 52756U 22057AA  23134.85703950  .00007131  00000+0  37125-3 0  9993
2 52756  97.5344 250.4580 0011289  94.5308 265.7214 15.16273203 53570
HAWK-5A
1 52757U 22057AB  23134.85682225  .00007234  00000+0  37651-3 0  9993
2 52757  97.5421 250.8356 0011651  97.3359 262.9199 15.16275107 53578
ICEYE-X19
1 52758U 22057AC  23135.34159108 -.00042573  00000+0 -19671-2 0  9996
2 52758  97.5373 251.8427 0013070  77.6479   7.0214 15.20253742 53680
ICEYE-X20
1 52759U 22057AD  23135.30656545  .00020113  00000+0  86507-3 0  9997
2 52759  97.5375 252.4566 0010322  90.9351 295.9817 15.22625394 53728
ICEYE-X17
1 52762U 22057AG  23135.17541911  .00020828  00000+0  89443-3 0  9991
2 52762  97.5379 252.3553 0010856  91.5944 353.4009 15.22667333 53708
